{
  "type": "FeatureCollection",
  "name": "delivery-zones",
  "features": [
    {
      "type": "Feature",
      "id": 1,
      "properties": {
        "id": 1,
        "name": "Бесплатная доставка",
        "price": 0,
        "minOrder": 1000,
        "color": "#22c55e",
        "opacity": 0.3
      },
      "geometry": {
        "type": "Polygon",
        "coordinates": [
          [
            [
              37.525316,
              56.448083
            ],
            [
              37.488497,
              56.403938
            ],
            [
              37.503898,
              56.38916
            ],
            [
              37.498645,
              56.322309
            ],
            [
              37.544675,
              56.330247
            ],
            [
              37.581519,
              56.365411
            ],
            [
              37.579845,
              56.373084
            ],
            [
              37.568143,
              56.385925
            ],
            [
              37.572474,
              56.404277
            ],
            [
              37.53105,
              56.408275
            ],
            [
              37.525318,
              56.447954
            ],
            [
              37.525316,
              56.448083
            ]
          ]
        ]
      }
    },
    {
      "type": "Feature",
      "id": 2,
      "properties": {
        "id": 2,
        "name": "Зона 300₽",
        "price": 300,
        "minOrder": 2000,
        "color": "#3b82f6",
        "opacity": 0.2
      },
      "geometry": {
        "type": "Polygon",
        "coordinates": [
          [
            [
              37.515494,
              56.45863
            ],
            [
              37.477176,
              56.446931
            ],
            [
              37.40509,
              56.374354
            ],
            [
              37.469689,
              56.29945
            ],
            [
              37.46661,
              56.285367
            ],
            [
              37.475877,
              56.281103
            ],
            [
              37.478084,
              56.277785
            ],
            [
              37.506538,
              56.276093
            ],
            [
              37.58466,
              56.266275
            ],
            [
              37.632883,
              56.380167
            ],
            [
              37.593016,
              56.410302
            ],
            [
              37.561948,
              56.418217
            ],
            [
              37.51538,
              56.458601
            ],
            [
              37.515494,
              56.45863
            ]
          ]
        ]
      }
    },
    {
      "type": "Feature",
      "id": 3,
      "properties": {
        "id": 3,
        "name": "Зона 400₽",
        "price": 400,
        "minOrder": 3000,
        "color": "#a855f7",
        "opacity": 0.2
      },
      "geometry": {
        "type": "Polygon",
        "coordinates": [
          [
            [
              37.635052,
              56.550812
            ],
            [
              37.42144,
              56.488691
            ],
            [
              37.272855,
              56.389231
            ],
            [
              37.491985,
              56.229917
            ],
            [
              37.793475,
              56.282713
            ],
            [
              37.642658,
              56.417161
            ],
            [
              37.681509,
              56.48945
            ],
            [
              37.635116,
              56.550928
            ],
            [
              37.635052,
              56.550812
            ]
          ]
        ]
      }
    },
    {
      "type": "Feature",
      "id": 4,
      "properties": {
        "id": 4,
        "name": "Зона 500₽",
        "price": 500,
        "minOrder": 3000,
        "color": "#f59e0b",
        "opacity": 0.15
      },
      "geometry": {
        "type": "Polygon",
        "coordinates": [
          [
            [
              37.38476,
              56.581765
            ],
            [
              37.355947,
              56.480682
            ],
            [
              37.234555,
              56.411939
            ],
            [
              37.252218,
              56.311687
            ],
            [
              37.499376,
              56.177398
            ],
            [
              37.955656,
              56.304108
            ],
            [
              37.654163,
              56.584128
            ],
            [
              37.38476,
              56.581765
            ]
          ]
        ]
      }
    },
    {
      "type": "Feature",
      "id": 5,
      "properties": {
        "id": 5,
        "name": "Зона 600₽",
        "price": 600,
        "minOrder": 3000,
        "color": "#ef4444",
        "opacity": 0.1
      },
      "geometry": {
        "type": "Polygon",
        "coordinates": [
          [
            [
              37.51394,
              56.781361
            ],
            [
              37.033288,
              56.362147
            ],
            [
              37.530669,
              56.090705
            ],
            [
              38.0484,
              56.310414
            ],
            [
              37.51394,
              56.781361
            ]
          ]
        ]
      }
    }
  ]
}
